{
  "norad_id": 59503,
  "name": "STARLINK-31508",
  "history": [
    {
      "epoch": "2026-03-28T17:37:38.478432Z",
      "apogee_km": 484.3484384086778,
      "perigee_km": 481.62292603439164,
      "latitude_deg": 2.1404835982024084e-05,
      "longitude_deg": 142.02863041158048,
      "height_km": 482.28101101252645,
      "semi_major_axis_km": 6861.122682221535,
      "eccentricity": 0.00019862,
      "inclination_deg": 43.0034,
      "raan_deg": 232.5896,
      "arg_perigee_deg": 290.7216,
      "mean_anomaly_deg": 69.3423,
      "mean_motion_rev_day": 15.27601178
    }
  ]
}